ALOS (DAICHI)           
1 28931U 06002A   26020.84639952  .00003189  00000+0  54455-3 0  9993
2 28931  98.1148 337.0726 0002196  84.1587 275.9869 14.69627060 66453
H-2A R/B                
1 28932U 06002B   26020.95175618  .00018921  00000+0  96756-3 0  9990
2 28932  98.2341 163.9349 0054086  44.5900 315.9662 15.15414000 87203
RESURS-DK 1             
1 29228U 06021A   26020.98757230  .00006133  00000+0  35808-3 0  9992
2 29228  69.9346   0.3866 0005207 221.8589 138.2180 15.12416745 80315
CZ-4B R/B               
1 29507U 06046C   26020.97369432  .00013002  00000+0  66298-3 0  9991
2 29507  97.5678  66.0065 0035288  73.8891 286.6222 15.16331715 52819
CZ-2C R/B               
1 31114U 07010B   26020.89002688  .00000254  00000+0  13545-3 0  9990
2 31114  98.3972 136.5709 0060059  73.6187 287.1582 14.20227333972933
COSMO-SKYMED 1          
1 31598U 07023A   26021.25280373  .00011455  00000+0  10225-2 0  9996
2 31598  97.8836 211.9218 0000965  88.2834 271.8497 14.96113161  7813
COSMOS 2428             
1 31792U 07029A   26020.96007464  .00000474  00000+0  28002-3 0  9995
2 31792  70.9401 303.5365 0006051 331.4267  28.6521 14.12915732957356
SL-16 R/B               
1 31793U 07029B   26020.98808462 -.00000127  00000+0 -41105-4 0  9992
2 31793  70.9747 272.6570 0002068 272.9090 179.1506 14.14822372958626
KORONAS-FOTON           
1 33504U 09003A   26021.28408200  .00019264  00000+0  44895-3 0  9996
2 33504  82.4333 325.1059 0010331 339.7735  20.3100 15.42066549938435
CZ-2C R/B               
1 37731U 11030B   26021.46656878  .00002583  00000+0  33186-3 0  9998
2 37731  97.8472 339.7089 0053572 142.7126 330.0948 14.81034513783100
H-2A R/B                
1 38341U 12025E   26021.47444024  .00005957  00000+0  54311-3 0  9991
2 38341  98.4655 344.7879 0046000 106.4695 254.1586 14.94731914741164
SHIJIAN-16 (SJ-16)      
1 39358U 13057A   26021.43073709  .00009158  00000+0  89830-3 0  9991
2 39358  74.9727 274.5461 0017614 228.0636 131.9051 14.92183574664450
