CCSDS_OMM_VERS = 2.0
CREATION_DATE  = 
ORIGINATOR     = 

OBJECT_NAME    = ALOS (DAICHI)
OBJECT_ID      = 2006-002A
CENTER_NAME    = EARTH
REF_FRAME      = TEME
TIME_SYSTEM    = UTC
MEAN_ELEMENT_THEORY = SGP/SGP4

EPOCH          = 2026-01-20T20:18:48.918528
MEAN_MOTION    = 14.69627060
ECCENTRICITY   = .00021963
INCLINATION    = 98.1148
RA_OF_ASC_NODE = 337.0726
ARG_OF_PERICENTER = 84.1587
MEAN_ANOMALY   = 275.9869

EPHEMERIS_TYPE = 0
CLASSIFICATION_TYPE = U
NORAD_CAT_ID   = 28931
ELEMENT_SET_NO = 999
REV_AT_EPOCH   = 6645
BSTAR          = .54455062E-3
MEAN_MOTION_DOT = .3189E-4
MEAN_MOTION_DDOT = 0

CCSDS_OMM_VERS = 2.0
CREATION_DATE  = 
ORIGINATOR     = 

OBJECT_NAME    = H-2A R/B
OBJECT_ID      = 2006-002B
CENTER_NAME    = EARTH
REF_FRAME      = TEME
TIME_SYSTEM    = UTC
MEAN_ELEMENT_THEORY = SGP/SGP4

EPOCH          = 2026-01-20T22:50:31.733952
MEAN_MOTION    = 15.15414000
ECCENTRICITY   = .00540867
INCLINATION    = 98.2341
RA_OF_ASC_NODE = 163.9349
ARG_OF_PERICENTER = 44.5900
MEAN_ANOMALY   = 315.9662

EPHEMERIS_TYPE = 0
CLASSIFICATION_TYPE = U
NORAD_CAT_ID   = 28932
ELEMENT_SET_NO = 999
REV_AT_EPOCH   = 8720
BSTAR          = .96755604E-3
MEAN_MOTION_DOT = .18921E-3
MEAN_MOTION_DDOT = 0

CCSDS_OMM_VERS = 2.0
CREATION_DATE  = 
ORIGINATOR     = 

OBJECT_NAME    = RESURS-DK 1
OBJECT_ID      = 2006-021A
CENTER_NAME    = EARTH
REF_FRAME      = TEME
TIME_SYSTEM    = UTC
MEAN_ELEMENT_THEORY = SGP/SGP4

EPOCH          = 2026-01-20T23:42:06.246720
MEAN_MOTION    = 15.12416745
ECCENTRICITY   = .00052079
INCLINATION    = 69.9346
RA_OF_ASC_NODE = 0.3866
ARG_OF_PERICENTER = 221.8589
MEAN_ANOMALY   = 138.2180

EPHEMERIS_TYPE = 0
CLASSIFICATION_TYPE = U
NORAD_CAT_ID   = 29228
ELEMENT_SET_NO = 999
REV_AT_EPOCH   = 8031
BSTAR          = .35808466E-3
MEAN_MOTION_DOT = .6133E-4
MEAN_MOTION_DDOT = 0

CCSDS_OMM_VERS = 2.0
CREATION_DATE  = 
ORIGINATOR     = 

OBJECT_NAME    = CZ-4B R/B
OBJECT_ID      = 2006-046C
CENTER_NAME    = EARTH
REF_FRAME      = TEME
TIME_SYSTEM    = UTC
MEAN_ELEMENT_THEORY = SGP/SGP4

EPOCH          = 2026-01-20T23:22:07.189248
MEAN_MOTION    = 15.16331715
ECCENTRICITY   = .00352885
INCLINATION    = 97.5678
RA_OF_ASC_NODE = 66.0065
ARG_OF_PERICENTER = 73.8891
MEAN_ANOMALY   = 286.6222

EPHEMERIS_TYPE = 0
CLASSIFICATION_TYPE = U
NORAD_CAT_ID   = 29507
ELEMENT_SET_NO = 999
REV_AT_EPOCH   = 5281
BSTAR          = .66298169E-3
MEAN_MOTION_DOT = .13002E-3
MEAN_MOTION_DDOT = 0

CCSDS_OMM_VERS = 2.0
CREATION_DATE  = 
ORIGINATOR     = 

OBJECT_NAME    = CZ-2C R/B
OBJECT_ID      = 2007-010B
CENTER_NAME    = EARTH
REF_FRAME      = TEME
TIME_SYSTEM    = UTC
MEAN_ELEMENT_THEORY = SGP/SGP4

EPOCH          = 2026-01-20T21:21:38.322432
MEAN_MOTION    = 14.20227333
ECCENTRICITY   = .00600597
INCLINATION    = 98.3972
RA_OF_ASC_NODE = 136.5709
ARG_OF_PERICENTER = 73.6187
MEAN_ANOMALY   = 287.1582

EPHEMERIS_TYPE = 0
CLASSIFICATION_TYPE = U
NORAD_CAT_ID   = 31114
ELEMENT_SET_NO = 999
REV_AT_EPOCH   = 97293
BSTAR          = .13544803E-3
MEAN_MOTION_DOT = .254E-5
MEAN_MOTION_DDOT = 0

CCSDS_OMM_VERS = 2.0
CREATION_DATE  = 
ORIGINATOR     = 

OBJECT_NAME    = COSMO-SKYMED 1
OBJECT_ID      = 2007-023A
CENTER_NAME    = EARTH
REF_FRAME      = TEME
TIME_SYSTEM    = UTC
MEAN_ELEMENT_THEORY = SGP/SGP4

EPOCH          = 2026-01-21T06:04:02.242272
MEAN_MOTION    = 14.96113161
ECCENTRICITY   = .0000965
INCLINATION    = 97.8836
RA_OF_ASC_NODE = 211.9218
ARG_OF_PERICENTER = 88.2834
MEAN_ANOMALY   = 271.8497

EPHEMERIS_TYPE = 0
CLASSIFICATION_TYPE = U
NORAD_CAT_ID   = 31598
ELEMENT_SET_NO = 999
REV_AT_EPOCH   = 781
BSTAR          = .10225E-2
MEAN_MOTION_DOT = .11455E-3
MEAN_MOTION_DDOT = 0

CCSDS_OMM_VERS = 2.0
CREATION_DATE  = 
ORIGINATOR     = 

OBJECT_NAME    = COSMOS 2428
OBJECT_ID      = 2007-029A
CENTER_NAME    = EARTH
REF_FRAME      = TEME
TIME_SYSTEM    = UTC
MEAN_ELEMENT_THEORY = SGP/SGP4

EPOCH          = 2026-01-20T23:02:30.448896
MEAN_MOTION    = 14.12915732
ECCENTRICITY   = .00060515
INCLINATION    = 70.9401
RA_OF_ASC_NODE = 303.5365
ARG_OF_PERICENTER = 331.4267
MEAN_ANOMALY   = 28.6521

EPHEMERIS_TYPE = 0
CLASSIFICATION_TYPE = U
NORAD_CAT_ID   = 31792
ELEMENT_SET_NO = 999
REV_AT_EPOCH   = 95735
BSTAR          = .28002418E-3
MEAN_MOTION_DOT = .474E-5
MEAN_MOTION_DDOT = 0

CCSDS_OMM_VERS = 2.0
CREATION_DATE  = 
ORIGINATOR     = 

OBJECT_NAME    = SL-16 R/B
OBJECT_ID      = 2007-029B
CENTER_NAME    = EARTH
REF_FRAME      = TEME
TIME_SYSTEM    = UTC
MEAN_ELEMENT_THEORY = SGP/SGP4

EPOCH          = 2026-01-20T23:42:50.511168
MEAN_MOTION    = 14.14822372
ECCENTRICITY   = .00020684
INCLINATION    = 70.9747
RA_OF_ASC_NODE = 272.6570
ARG_OF_PERICENTER = 272.9090
MEAN_ANOMALY   = 179.1506

EPHEMERIS_TYPE = 0
CLASSIFICATION_TYPE = U
NORAD_CAT_ID   = 31793
ELEMENT_SET_NO = 999
REV_AT_EPOCH   = 95862
BSTAR          = -.41105438E-4
MEAN_MOTION_DOT = -.127E-5
MEAN_MOTION_DDOT = 0

CCSDS_OMM_VERS = 2.0
CREATION_DATE  = 
ORIGINATOR     = 

OBJECT_NAME    = KORONAS-FOTON
OBJECT_ID      = 2009-003A
CENTER_NAME    = EARTH
REF_FRAME      = TEME
TIME_SYSTEM    = UTC
MEAN_ELEMENT_THEORY = SGP/SGP4

EPOCH          = 2026-01-21T06:49:04.684800
MEAN_MOTION    = 15.42066549
ECCENTRICITY   = .0010331
INCLINATION    = 82.4333
RA_OF_ASC_NODE = 325.1059
ARG_OF_PERICENTER = 339.7735
MEAN_ANOMALY   = 20.3100

EPHEMERIS_TYPE = 0
CLASSIFICATION_TYPE = U
NORAD_CAT_ID   = 33504
ELEMENT_SET_NO = 999
REV_AT_EPOCH   = 93843
BSTAR          = .44895E-3
MEAN_MOTION_DOT = .19264E-3
MEAN_MOTION_DDOT = 0

CCSDS_OMM_VERS = 2.0
CREATION_DATE  = 
ORIGINATOR     = 

OBJECT_NAME    = CZ-2C R/B
OBJECT_ID      = 2011-030B
CENTER_NAME    = EARTH
REF_FRAME      = TEME
TIME_SYSTEM    = UTC
MEAN_ELEMENT_THEORY = SGP/SGP4

EPOCH          = 2026-01-21T11:11:51.542592
MEAN_MOTION    = 14.81034513
ECCENTRICITY   = .0053572
INCLINATION    = 97.8472
RA_OF_ASC_NODE = 339.7089
ARG_OF_PERICENTER = 142.7126
MEAN_ANOMALY   = 330.0948

EPHEMERIS_TYPE = 0
CLASSIFICATION_TYPE = U
NORAD_CAT_ID   = 37731
ELEMENT_SET_NO = 999
REV_AT_EPOCH   = 78310
BSTAR          = .33186E-3
MEAN_MOTION_DOT = .2583E-4
MEAN_MOTION_DDOT = 0

CCSDS_OMM_VERS = 2.0
CREATION_DATE  = 
ORIGINATOR     = 

OBJECT_NAME    = H-2A R/B
OBJECT_ID      = 2012-025E
CENTER_NAME    = EARTH
REF_FRAME      = TEME
TIME_SYSTEM    = UTC
MEAN_ELEMENT_THEORY = SGP/SGP4

EPOCH          = 2026-01-21T11:23:11.636736
MEAN_MOTION    = 14.94731914
ECCENTRICITY   = .0046
INCLINATION    = 98.4655
RA_OF_ASC_NODE = 344.7879
ARG_OF_PERICENTER = 106.4695
MEAN_ANOMALY   = 254.1586

EPHEMERIS_TYPE = 0
CLASSIFICATION_TYPE = U
NORAD_CAT_ID   = 38341
ELEMENT_SET_NO = 999
REV_AT_EPOCH   = 74116
BSTAR          = .54311E-3
MEAN_MOTION_DOT = .5957E-4
MEAN_MOTION_DDOT = 0

CCSDS_OMM_VERS = 2.0
CREATION_DATE  = 
ORIGINATOR     = 

OBJECT_NAME    = SHIJIAN-16 (SJ-16)
OBJECT_ID      = 2013-057A
CENTER_NAME    = EARTH
REF_FRAME      = TEME
TIME_SYSTEM    = UTC
MEAN_ELEMENT_THEORY = SGP/SGP4

EPOCH          = 2026-01-21T10:20:15.684576
MEAN_MOTION    = 14.92183574
ECCENTRICITY   = .0017614
INCLINATION    = 74.9727
RA_OF_ASC_NODE = 274.5461
ARG_OF_PERICENTER = 228.0636
MEAN_ANOMALY   = 131.9051

EPHEMERIS_TYPE = 0
CLASSIFICATION_TYPE = U
NORAD_CAT_ID   = 39358
ELEMENT_SET_NO = 999
REV_AT_EPOCH   = 66445
BSTAR          = .8983E-3
MEAN_MOTION_DOT = .9158E-4
MEAN_MOTION_DDOT = 0

